NORAD_CAT_ID,OBJECT_NAME,OBJECT_TYPE,EPOCH,MEAN_MOTION,ECCENTRICITY,INCLINATION,RA_OF_ASC_NODE,ARG_OF_PERICENTER,MEAN_ANOMALY,BSTAR,MEAN_MOTION_DOT,MEAN_MOTION_DDOT,TLE_LINE0,TLE_LINE1,TLE_LINE2,SEMIMAJOR_AXIS,PERIOD,APOGEE,PERIGEE,DECAYED
53927.0,STARLINK-5008,PAYLOAD,2022-11-28 22:00:01,15.73184279,0.000381,53.2127,291.5412,5.127000000000002,350.6009,0.00045525,0.00063732,0.0,0 STARLINK-5008,1 53927U 22119AT  22332.91668981  .00063732  00000-0  45525-3 0  9996,2 53927  53.2127 291.5412 0003810   5.1270 350.6009 15.73184279  1303,6727.94,91.534,352.36800000000005,347.242,0.0
53927.0,STARLINK-5008,PAYLOAD,2022-11-29 06:00:00,15.73236962,0.0004074,53.2127,289.8938,5.3018,79.2954,2.9897e-05,3.581e-05,0.0,0 STARLINK-5008,1 53927U 22119AT  22333.25001157  .00003581  00000-0  29897-4 0  9991,2 53927  53.2127 289.8938 0004074   5.3018  79.2954 15.73236962 10716,6727.79,91.531,352.396,346.914,0.0
53927.0,STARLINK-5008,PAYLOAD,2022-11-29 14:00:01,15.73245253,0.0003988,53.2127,288.2426,5.2342,168.4041,-0.00065204,-0.00091372,0.0,0 STARLINK-5008,1 53927U 22119AT  22333.58335648 -.00091372  00000-0 -65204-3 0  9990,2 53927  53.2127 288.2426 0003988   5.2342 168.4041 15.73245253  1309,6727.766,91.531,352.314,346.9480000000001,0.0
53927.0,STARLINK-5008,PAYLOAD,2022-11-29 22:00:00,15.73188875,0.0003885,53.2127,286.5924,8.9206,253.5844,0.00039779,0.00055567,0.0,0 STARLINK-5008,1 53927U 22119AT  22333.91667824  .00055567  00000-0  39779-3 0  9993,2 53927  53.2127 286.5924 0003885   8.9206 253.5844 15.73188875 10817,6727.927,91.534,352.406,347.17800000000005,0.0
53927.0,STARLINK-5008,PAYLOAD,2022-11-30 14:00:01,15.7319811,0.0003867,53.2122,283.2932,6.4498,74.0242,0.00023661,0.00032722,0.0,0 STARLINK-5008,1 53927U 22119AT  22334.58335648  .00032722  00000-0  23661-3 0  9994,2 53927  53.2122 283.2932 0003867   6.4498  74.0242 15.73198110 10924,6727.901,91.533,352.367,347.164,0.0
53927.0,STARLINK-5008,PAYLOAD,2022-11-30 22:00:00,15.73320906,0.0003739,53.2142,281.6323,5.0137,164.3225,-0.0020428,-0.00279616,0.0,0 STARLINK-5008,1 53927U 22119AT  22334.91667824 -.00279616  00000-0 -20428-2 0  9999,2 53927  53.2142 281.6323 0003739   5.0137 164.3225 15.73320906  1301,6727.55,91.526,351.931,346.9,0.0
53927.0,STARLINK-5008,PAYLOAD,2022-12-01 06:00:00,15.73009591,0.0004224,53.2162,279.9773,1.025,257.2935,0.002043,0.00294023,0.0,0 STARLINK-5008,1 53927U 22119AT  22335.25001157  .00294023  00000-0  20430-2 0  9998,2 53927  53.2162 279.9773 0004224   1.0250 257.2935 15.73009591 11028,6728.438,91.544,353.145,347.461,0.0
53927.0,STARLINK-5008,PAYLOAD,2022-12-01 14:00:01,15.73200233,0.0003851,53.2122,278.3443,3.3859,343.8296,0.00037626,0.00052532,0.0,0 STARLINK-5008,1 53927U 22119AT  22335.58334491  .00052532  00000-0  37626-3 0  9997,2 53927  53.2122 278.3443 0003851   3.3859 343.8296 15.73200233  1304,6727.895,91.533,352.35,347.1690000000001,0.0
53927.0,STARLINK-5008,PAYLOAD,2022-12-01 20:00:01,15.7325048,0.0003805,53.2123,277.1061,5.5881,318.3891,6.103800000000001e-05,7.971e-05,0.0,0 STARLINK-5008,1 53927U 22119AT  22335.83335648  .00007971  00000-0  61038-4 0  9992,2 53927  53.2123 277.1061 0003805   5.5881 318.3891 15.73250480 11113,6727.751,91.53,352.176,347.056,0.0
53927.0,STARLINK-5008,PAYLOAD,2022-12-01 22:00:00,15.73286567,0.0003843,53.2123,276.6943,6.6161,69.5326,-0.0004984,-0.00070282,0.0,0 STARLINK-5008,1 53927U 22119AT  22335.91667824 -.00070282  00000-0 -49840-3 0  9998,2 53927  53.2123 276.6943 0003843   6.6161  69.5326 15.73286567  1304,6727.648,91.528,352.099,346.92800000000005,0.0
53927.0,STARLINK-5008,PAYLOAD,2022-12-02 06:00:00,15.73214394,0.0004067,53.2123,275.0457,5.8528,159.2976,-0.00044318,-0.00062433,0.0,0 STARLINK-5008,1 53927U 22119AT  22336.25001157 -.00062433  00000-0 -44318-3 0  9991,2 53927  53.2123 275.0457 0004067   5.8528 159.2976 15.73214394 11188,6727.854,91.532,352.455,346.983,0.0
53927.0,STARLINK-5008,PAYLOAD,2022-12-02 14:00:01,15.7321526,0.0003823,53.2118,273.3948,5.3399,248.7341,-0.00035434,-0.00050113,0.0,0 STARLINK-5008,1 53927U 22119AT  22336.58334491 -.00050113  00000-0 -35434-3 0  9998,2 53927  53.2118 273.3948 0003823   5.3399 248.7341 15.73215260 11237,6727.852,91.532,352.289,347.145,0.0
53927.0,STARLINK-5008,PAYLOAD,2022-12-02 22:00:00,15.73214564,0.0003731,53.212,271.7451,4.4309,338.5563,4.0186e-05,5.024e-05,0.0,0 STARLINK-5008,1 53927U 22119AT  22336.91667824  .00005024  00000-0  40186-4 0  9994,2 53927  53.2120 271.7451 0003731   4.4309 338.5563 15.73214564 11285,6727.854,91.532,352.22900000000016,347.208,0.0
53927.0,STARLINK-5008,PAYLOAD,2022-12-03 14:00:01,15.73231593,0.0003788,53.2124,268.4454,1.5835,159.2817,-0.00034583,-0.00048965,0.0,0 STARLINK-5008,1 53927U 22119AT  22337.58334491 -.00048965  00000-0 -34583-3 0  9995,2 53927  53.2124 268.4454 0003788   1.5835 159.2817 15.73231593  1302,6727.805,91.531,352.219,347.122,0.0
53927.0,STARLINK-5008,PAYLOAD,2022-12-03 22:00:00,15.73228118,0.0003775,53.2125,266.7959,3.8381,245.9625,-0.00053809,-0.00075592,0.0,0 STARLINK-5008,1 53927U 22119AT  22337.91667824 -.00075592  00000-0 -53809-3 0  9999,2 53927  53.2125 266.7959 0003775   3.8381 245.9625 15.73228118  1300,6727.815,91.532,352.22,347.14,0.0
53927.0,STARLINK-5008,PAYLOAD,2022-12-04 06:00:00,15.73154589,0.0004039,53.2121,265.1478,5.2754,333.4689,0.0005332,0.00074758,0.0,0 STARLINK-5008,1 53927U 22119AT  22338.25001157  .00074758  00000-0  53320-3 0  9997,2 53927  53.2121 265.1478 0004039   5.2754 333.4689 15.73154589 11493,6728.025,91.536,352.607,347.172,0.0
53927.0,STARLINK-5008,PAYLOAD,2022-12-04 14:00:01,15.73161493,0.0003685,53.2121,263.4962,3.9839,63.6781,0.00016335,0.00022332,0.0,0 STARLINK-5008,1 53927U 22119AT  22338.58334491  .00022332  00000-0  16335-3 0  9999,2 53927  53.2121 263.4962 0003685   3.9839  63.6781 15.73161493 11551,6728.005,91.535,352.349,347.391,0.0
53927.0,STARLINK-5008,PAYLOAD,2022-12-04 22:00:00,15.73204676,0.0003679,53.2123,261.8471,4.7551,151.7982,0.00032571,0.00045359,0.0,0 STARLINK-5008,1 53927U 22119AT  22338.91667824  .00045359  00000-0  32571-3 0  9999,2 53927  53.2123 261.8471 0003679   4.7551 151.7982 15.73204676  1308,6727.882,91.533,352.222,347.272,0.0
53927.0,STARLINK-5008,PAYLOAD,2022-12-05 14:00:01,15.73167003,0.0003675,53.2131,258.5474,5.3695,329.1937,0.00037494,0.00052267,0.0,0 STARLINK-5008,1 53927U 22119AT  22339.58335648  .00052267  00000-0  37494-3 0  9994,2 53927  53.2131 258.5474 0003675   5.3695 329.1937 15.73167003 11703,6727.989000000001,91.535,352.327,347.38199999999995,0.0
53927.0,STARLINK-5008,PAYLOAD,2022-12-05 18:40:57,15.73211558,0.0003948,53.2146,257.5822,8.3354,351.7731,2.103e-05,2.33e-05,0.0,0 STARLINK-5008,1 53927U 22119AT  22339.77844536  .00002330  00000-0  21030-4 0  9992,2 53927  53.2146 257.5822 0003948   8.3354 351.7731 15.73211558 12162,6727.861999999999,91.533,352.3830000000001,347.071,0.0
53927.0,STARLINK-5008,PAYLOAD,2022-12-05 23:16:25,15.72344147,0.0007101,53.2149,256.6439,34.4169,325.731,-0.00083652,-0.00112502,0.0,0 STARLINK-5008,1 53927U 22119AT  22339.96973444 -.00112502  00000-0 -83652-3 0  9996,2 53927  53.2149 256.6439 0007101  34.4169 325.7310 15.72344147 11767,6730.3359999999975,91.583,356.981,347.422,0.0
53927.0,STARLINK-5008,PAYLOAD,2022-12-06 22:00:00,15.71684789,0.0006236,53.2166,251.9339,274.735,53.8907,-0.0080731999999999,-0.00966696,0.0,0 STARLINK-5008,1 53927U 22119AT  22340.91667824 -.00966696  00000-0 -80732-2 0  9991,2 53927  53.2166 251.9339 0006236 274.7350  53.8907 15.71684789 11918,6732.219,91.621,358.282,349.885,0.0
53927.0,STARLINK-5008,PAYLOAD,2022-12-07 06:00:00,15.72098316,0.0004613,53.2121,250.3073,301.2471,114.9778,0.00090973,0.00123068,0.0,0 STARLINK-5008,1 53927U 22119AT  22341.25001157  .00123068  00000-0  90973-3 0  9995,2 53927  53.2121 250.3073 0004613 301.2471 114.9778 15.72098316 11971,6731.038000000001,91.597,356.0080000000001,349.798,0.0
53927.0,STARLINK-5008,PAYLOAD,2022-12-07 14:00:01,15.70130575,0.0005838999999999,53.2176,248.642,269.798,231.3269,-0.0095155,-0.01056669,0.0,0 STARLINK-5008,1 53927U 22119AT  22341.58334491 -.01056669  00000-0 -95155-2 0  9992,2 53927  53.2176 248.6420 0005839 269.7980 231.3269 15.70130575 12029,6736.66,91.712,362.459,354.592,0.0
53927.0,STARLINK-5008,PAYLOAD,2022-12-07 22:00:00,15.68073821,0.0002722,53.217,246.9998,251.7179,334.8594,0.0066032,0.00813102,0.0,0 STARLINK-5008,1 53927U 22119AT  22341.91667824  .00813102  00000-0  66032-2 0  9990,2 53927  53.2170 246.9998 0002722 251.7179 334.8594 15.68073821 12075,6742.55,91.832,366.25,362.58,0.0
53927.0,STARLINK-5008,PAYLOAD,2022-12-08 00:00:00,15.6905198,0.000197,53.218,246.5915,252.8659,84.1361,-0.0090257,-0.00965292,0.0,0 STARLINK-5008,1 53927U 22119AT  22342.00001157 -.00965292  00000-0 -90257-2 0  9998,2 53927  53.2180 246.5915 0001970 252.8659  84.1361 15.69051980  1304,6739.746999999999,91.775,362.94,360.285,0.0
53927.0,STARLINK-5008,PAYLOAD,2022-12-08 06:00:00,15.68545288,8.03e-05,53.2173,245.363,190.9118,118.8179,-0.010712,-0.01104788,0.0,0 STARLINK-5008,1 53927U 22119AT  22342.25001157 -.01104788  00000-0 -10712-1 0  9998,2 53927  53.2173 245.3630 0000803 190.9118 118.8179 15.68545288 12125,6741.199000000001,91.805,363.605,362.522,0.0
53927.0,STARLINK-5008,PAYLOAD,2022-12-08 14:00:01,15.68728447,0.000587,53.2144,243.7394,273.9302,121.7637,0.021738,0.02886381,0.0,0 STARLINK-5008,1 53927U 22119AT  22342.58334491  .02886381  00000-0  21738-1 0  9999,2 53927  53.2144 243.7394 0005870 273.9302 121.7637 15.68728447  1308,6740.674,91.794,366.496,358.582,0.0
53927.0,STARLINK-5008,PAYLOAD,2022-12-08 19:58:08,15.70487475,0.0012277,53.2058,242.5113,263.7384,96.2236,-0.0014741,-0.00182027,0.0,0 STARLINK-5008,1 53927U 22119AT  22342.83204088 -.00182027  00000-0 -14741-2 0  9998,2 53927  53.2058 242.5113 0012277 263.7384  96.2236 15.70487475 12213,6735.64,91.691,365.774,349.235,0.0
